{"spkid": "54292683", "covariance": {"epoch": "2460115.5", "data": [["1.171042894863823E-15", "-8.486264606822207E-16", "-3.076924417912068E-13", "-1.773123044106173E-13", "-2.119473428829762E-13", "-6.455554879806098E-14", "-1.598014186829515E-21"], ["-8.486264606822207E-16", "6.167813111235579E-16", "2.124924127603148E-13", "1.329574791730142E-13", "1.374757644257532E-13", "4.801395817828364E-14", "1.114493440352028E-21"], ["-3.076924417912068E-13", "2.124924127603148E-13", "2.011349812930683E-10", "2.870106371483148E-11", "1.997715818551764E-10", "1.686772798743201E-11", "7.884831480448115E-19"], ["-1.773123044106173E-13", "1.329574791730142E-13", "2.870106371483148E-11", "7.711438287000533E-11", "-3.938901031129847E-11", "1.387370930321616E-11", "1.640854177716873E-19"], ["-2.119473428829762E-13", "1.374757644257532E-13", "1.997715818551764E-10", "-3.938901031129847E-11", "2.639811513484834E-10", "6.574663024038676E-12", "7.664911529728437E-19"], ["-6.455554879806098E-14", "4.801395817828364E-14", "1.686772798743201E-11", "1.387370930321616E-11", "6.574663024038676E-12", "5.851225101626516E-12", "7.461012124660634E-20"], ["-1.598014186829515E-21", "1.114493440352028E-21", "7.884831480448115E-19", "1.640854177716873E-19", "7.664911529728437E-19", "7.461012124660634E-20", "4.215510151175539E-27"]], "elements": [{"label": "e", "title": "eccentricity", "value": ".06019592481462917", "units": null, "sigma": 3.42205040124166e-08, "name": "e"}, {"label": "q", "sigma": 2.48350822652867e-08, "name": "q", "title": "perihelion distance", "value": ".9463170783317554", "units": "au"}, {"label": "tp", "sigma": 1.41822065029765e-05, "name": "tp", "units": "TDB", "value": "2460262.620915533348", "title": "time of perihelion passage"}, {"label": "node", "units": "deg", "title": "longitude of the ascending node", "value": "304.5650351278143", "sigma": 8.78147953764087e-06, "name": "om"}, {"value": "109.3065537858987", "title": "argument of perihelion", "units": "deg", "sigma": 1.62474967717641e-05, "name": "w", "label": "peri"}, {"units": "deg", "title": "inclination", "value": "2.070813468279429", "sigma": 2.41893056982347e-06, "name": "i", "label": "i"}], "labels": ["e", "q", "tp", "node", "peri", "i", "A2"]}, "elements": [{"label": "e", "value": ".0548592073798253", "title": "eccentricity", "units": null, "sigma": "8.0433E-8", "name": "e"}, {"sigma": "9.7302E-8", "name": "a", "units": "au", "value": "1.026199142802237", "title": "semi-major axis", "label": "a"}, {"label": "q", "units": "au", "value": ".9699026712142497", "title": "perihelion distance", "sigma": "2.6045E-8", "name": "q"}, {"name": "i", "sigma": "2.1372E-6", "title": "inclination; angle with respect to x-y ecliptic plane", "value": "2.75583737844462", "units": "deg", "label": "i"}, {"title": "longitude of the ascending node", "value": "296.0277557609091", "units": "deg", "sigma": "1.2908E-5", "name": "om", "label": "node"}, {"title": "argument of perihelion", "value": "127.4142907418958", "units": "deg", "name": "w", "sigma": "8.4713E-5", "label": "peri"}, {"title": "mean anomaly", "value": "183.6612810574196", "units": "deg", "name": "ma", "sigma": "9.4123E-5", "label": "M"}, {"value": "2461386.490635717950", "title": "time of perihelion passage", "units": "TDB", "name": "tp", "sigma": ".00012489", "label": "tp"}, {"label": "period", "value": "379.7046346937826", "title": "sidereal orbital period", "units": "d", "name": "per", "sigma": "5.4004E-5"}, {"label": "n", "sigma": "1.3485E-7", "name": "n", "value": ".9481053616591389", "title": "mean motion", "units": "deg/d"}, {"label": "Q", "name": "ad", "sigma": "1.0264E-7", "value": "1.082495614390223", "title": "aphelion distance", "units": "au"}], "epoch": "2461200.5"}